{"type": "FeatureCollection", "features": [ {"type": "Feature", "properties": {"norad_id": 66677, "name": "TRANSPORTER-15M", "group": "last-30-days", "lat": 82.55007155493617, "lon": -21.470922288628543, "alt_km": 508.30977903802705, "timestamp": "2025-12-25T11:37:43.132486+00:00", "meta": {"OBJECT_NAME": "TRANSPORTER-15M", "OBJECT_ID": "2025-276M", "EPOCH": "2025-12-25T03:19:09.808608", "MEAN_MOTION": 15.17546607, "ECCENTRICITY": 0.0003894, "INCLINATION": 97.4379, "RA_OF_ASC_NODE": 70.6707, "ARG_OF_PERICENTER": 253.4318, "MEAN_ANOMALY": 106.6488, "EPHEMERIS_TYPE": 0, "CLASSIFICATION_TYPE": "U", "NORAD_CAT_ID": 66677, "ELEMENT_SET_NO": 999, "REV_AT_EPOCH": 400, "BSTAR": 0.00076562, "MEAN_MOTION_DOT": 0.00015322, "MEAN_MOTION_DDOT": 0}, "tle": {"line1": "1 66677U 25276M   25359.13830797  .00015322  00000+0  76562-3 0  9997", "line2": "2 66677  97.4379  70.6707 0003894 253.4318 106.6488 15.17546607  4009"}}, "geometry": {"type": "Point", "coordinates": [-21.470922288628543, 82.55007155493617]}}, {"type": "Feature", "properties": {"norad_id": 66678, "name": "TRANSPORTER-15N", "group": "last-30-days", "lat": 44.78141916071766, "lon": 63.55220330539494, "alt_km": 506.74782890125607, "timestamp": "2025-12-25T11:37:43.132496+00:00", "meta": {"OBJECT_NAME": "TRANSPORTER-15N", "OBJECT_ID": "2025-276N", "EPOCH": "2025-12-25T00:20:54.196224", "MEAN_MOTION": 15.1696988, "ECCENTRICITY": 0.0006791, "INCLINATION": 97.4412, "RA_OF_ASC_NODE": 70.5434, "ARG_OF_PERICENTER": 27.1119, "MEAN_ANOMALY": 333.0467, "EPHEMERIS_TYPE": 0, "CLASSIFICATION_TYPE": "U", "NORAD_CAT_ID": 66678, "ELEMENT_SET_NO": 999, "REV_AT_EPOCH": 398, "BSTAR": 0.0015424, "MEAN_MOTION_DOT": 0.00030504, "MEAN_MOTION_DDOT": 0}, "tle": {"line1": "1 66678U 25276N   25359.01451616  .00030504  00000+0  15424-2 0  9992", "line2": "2 66678  97.4412  70.5434 0006791  27.1119 333.0467 15.16969880  3988"}}, "geometry": {"type": "Point", "coordinates": [63.55220330539494, 44.78141916071766]}}, {"type": "Feature", "properties": {"norad_id": 66679, "name": "TRANSPORTER-15P", "group": "last-30-days", "lat": 36.206460009403735, "lon": 65.4968657340641, "alt_km": 516.1661797053494, "timestamp": "2025-12-25T11:37:43.132506+00:00", "meta": {"OBJECT_NAME": "TRANSPORTER-15P", "OBJECT_ID": "2025-276P", "EPOCH": "2025-12-25T03:33:03.515040", "MEAN_MOTION": 15.16711244, "ECCENTRICITY": 0.0004716, "INCLINATION": 97.436, "RA_OF_ASC_NODE": 70.6534, "ARG_OF_PERICENTER": 247.1948, "MEAN_ANOMALY": 112.8787, "EPHEMERIS_TYPE": 0, "CLASSIFICATION_TYPE": "U", "NORAD_CAT_ID": 66679, "ELEMENT_SET_NO": 999, "REV_AT_EPOCH": 400, "BSTAR": 0.00023089, "MEAN_MOTION_DOT": 4.459e-05, "MEAN_MOTION_DDOT": 0}, "tle": {"line1": "1 66679U 25276P   25359.14795735  .00004459  00000+0  23089-3 0  9997", "line2": "2 66679  97.4360  70.6534 0004716 247.1948 112.8787 15.16711244  4003"}}, "geometry": {"type": "Point", "coordinates": [65.4968657340641, 36.206460009403735]}}, {"type": "Feature", "properties": {"norad_id": 66680, "name": "TRANSPORTER-15Q", "group": "last-30-days", "lat": 45.36820289891635, "lon": 63.39525343716319, "alt_km": 514.7410905485976, "timestamp": "2025-12-25T11:37:43.132516+00:00", "meta": {"OBJECT_NAME": "TRANSPORTER-15Q", "OBJECT_ID": "2025-276Q", "EPOCH": "2025-12-25T03:30:39.240000", "MEAN_MOTION": 15.16864524, "ECCENTRICITY": 0.0004839, "INCLINATION": 97.4407, "RA_OF_ASC_NODE": 70.6705, "ARG_OF_PERICENTER": 236.5192, "MEAN_ANOMALY": 123.5579, "EPHEMERIS_TYPE": 0, "CLASSIFICATION_TYPE": "U", "NORAD_CAT_ID": 66680, "ELEMENT_SET_NO": 999, "REV_AT_EPOCH": 400, "BSTAR": 0.00053175, "MEAN_MOTION_DOT": 0.0001041, "MEAN_MOTION_DDOT": 0}, "tle": {"line1": "1 66680U 25276Q   25359.14628750  .00010410  00000+0  53175-3 0  9994", "line2": "2 66680  97.4407  70.6705 0004839 236.5192 123.5579 15.16864524  4004"}}, "geometry": {"type": "Point", "coordinates": [63.39525343716319, 45.36820289891635]}}, {"type": "Feature", "properties": {"norad_id": 66681, "name": "TRANSPORTER-15R", "group": "last-30-days", "lat": 77.20049729926839, "lon": 35.91503506984436, "alt_km": 509.43773286262876, "timestamp": "2025-12-25T11:37:43.132526+00:00", "meta": {"OBJECT_NAME": "TRANSPORTER-15R", "OBJECT_ID": "2025-276R", "EPOCH": "2025-12-25T03:21:59.549184", "MEAN_MOTION": 15.17524889, "ECCENTRICITY": 0.0004941, "INCLINATION": 97.4331, "RA_OF_ASC_NODE": 70.6534, "ARG_OF_PERICENTER": 265.5026, "MEAN_ANOMALY": 94.5643, "EPHEMERIS_TYPE": 0, "CLASSIFICATION_TYPE": "U", "NORAD_CAT_ID": 66681, "ELEMENT_SET_NO": 999, "REV_AT_EPOCH": 400, "BSTAR": 0.00093424, "MEAN_MOTION_DOT": 0.0001871, "MEAN_MOTION_DDOT": 0}, "tle": {"line1": "1 66681U 25276R   25359.14027256  .00018710  00000+0  93424-3 0  9991", "line2": "2 66681  97.4331  70.6534 0004941 265.5026  94.5643 15.17524889  4000"}}, "geometry": {"type": "Point", "coordinates": [35.91503506984436, 77.20049729926839]}}, {"type": "Feature", "properties": {"norad_id": 66682, "name": "TRANSPORTER-15S", "group": "last-30-days", "lat": 56.132134581593924, "lon": 59.78567842644931, "alt_km": 520.9236636685719, "timestamp": "2025-12-25T11:37:43.132563+00:00", "meta": {"OBJECT_NAME": "TRANSPORTER-15S", "OBJECT_ID": "2025-276S", "EPOCH": "2025-12-25T00:16:38.732160", "MEAN_MOTION": 15.1500617, "ECCENTRICITY": 0.0013716, "INCLINATION": 97.4452, "RA_OF_ASC_NODE": 70.5585, "ARG_OF_PERICENTER": 159.6506, "MEAN_ANOMALY": 200.5276, "EPHEMERIS_TYPE": 0, "CLASSIFICATION_TYPE": "U", "NORAD_CAT_ID": 66682, "ELEMENT_SET_NO": 999, "REV_AT_EPOCH": 398, "BSTAR": -0.069428, "MEAN_MOTION_DOT": -0.01194712, "MEAN_MOTION_DDOT": 0}, "tle": {"line1": "1 66682U 25276S   25359.01155940 -.01194712  00000+0 -69428-1 0  9995", "line2": "2 66682  97.4452  70.5585 0013716 159.6506 200.5276 15.15006170  3989"}}, "geometry": {"type": "Point", "coordinates": [59.78567842644931, 56.132134581593924]}}, {"type": "Feature", "properties": {"norad_id": 66683, "name": "TRANSPORTER-15T", "group": "last-30-days", "lat": 57.59862314723247, "lon": 59.130332397256055, "alt_km": 512.5547859989056, "timestamp": "2025-12-25T11:37:43.132574+00:00", "meta": {"OBJECT_NAME": "TRANSPORTER-15T", "OBJECT_ID": "2025-276T", "EPOCH": "2025-12-25T03:27:24.966144", "MEAN_MOTION": 15.1705669, "ECCENTRICITY": 0.0004873, "INCLINATION": 97.4446, "RA_OF_ASC_NODE": 70.6859, "ARG_OF_PERICENTER": 232.4694, "MEAN_ANOMALY": 127.6097, "EPHEMERIS_TYPE": 0, "CLASSIFICATION_TYPE": "U", "NORAD_CAT_ID": 66683, "ELEMENT_SET_NO": 999, "REV_AT_EPOCH": 400, "BSTAR": 0.00039334, "MEAN_MOTION_DOT": 7.723e-05, "MEAN_MOTION_DDOT": 0}, "tle": {"line1": "1 66683U 25276T   25359.14403896  .00007723  00000+0  39334-3 0  9993", "line2": "2 66683  97.4446  70.6859 0004873 232.4694 127.6097 15.17056690  4008"}}, "geometry": {"type": "Point", "coordinates": [59.130332397256055, 57.59862314723247]}}, {"type": "Feature", "properties": {"norad_id": 66684, "name": "TRANSPORTER-15U", "group": "last-30-days", "lat": 76.29322102546521, "lon": 38.60450350109541, "alt_km": 509.3243476679936, "timestamp": "2025-12-25T11:37:43.132587+00:00", "meta": {"OBJECT_NAME": "TRANSPORTER-15U", "OBJECT_ID": "2025-276U", "EPOCH": "2025-12-25T03:22:13.548576", "MEAN_MOTION": 15.17373829, "ECCENTRICITY": 0.0004622, "INCLINATION": 97.4471, "RA_OF_ASC_NODE": 70.6987, "ARG_OF_PERICENTER": 229.7769, "MEAN_ANOMALY": 130.3061, "EPHEMERIS_TYPE": 0, "CLASSIFICATION_TYPE": "U", "NORAD_CAT_ID": 66684, "ELEMENT_SET_NO": 999, "REV_AT_EPOCH": 400, "BSTAR": 0.00062316, "MEAN_MOTION_DOT": 0.00012393, "MEAN_MOTION_DDOT": 0}, "tle": {"line1": "1 66684U 25276U   25359.14043459  .00012393  00000+0  62316-3 0  9994", "line2": "2 66684  97.4471  70.6987 0004622 229.7769 130.3061 15.17373829  4001"}}, "geometry": {"type": "Point", "coordinates": [38.60450350109541, 76.29322102546521]}}, {"type": "Feature", "properties": {"norad_id": 66685, "name": "TRANSPORTER-15V", "group": "last-30-days", "lat": 81.99767067653127, "lon": 2.6278277711209723, "alt_km": 508.491394318271, "timestamp": "2025-12-25T11:37:43.132596+00:00", "meta": {"OBJECT_NAME": "TRANSPORTER-15V", "OBJECT_ID": "2025-276V", "EPOCH": "2025-12-25T03:20:01.113792", "MEAN_MOTION": 15.17536428, "ECCENTRICITY": 0.0004037, "INCLINATION": 97.4415, "RA_OF_ASC_NODE": 70.6824, "ARG_OF_PERICENTER": 253.1785, "MEAN_ANOMALY": 106.9006, "EPHEMERIS_TYPE": 0, "CLASSIFICATION_TYPE": "U", "NORAD_CAT_ID": 66685, "ELEMENT_SET_NO": 999, "REV_AT_EPOCH": 400, "BSTAR": 0.00082703, "MEAN_MOTION_DOT": 0.00016554, "MEAN_MOTION_DDOT": 0}, "tle": {"line1": "1 66685U 25276V   25359.13890178  .00016554  00000+0  82703-3 0  9997", "line2": "2 66685  97.4415  70.6824 0004037 253.1785 106.9006 15.17536428  4003"}}, "geometry": {"type": "Point", "coordinates": [2.6278277711209723, 81.99767067653127]}}, {"type": "Feature", "properties": {"norad_id": 66686, "name": "TRANSPORTER-15W", "group": "last-30-days", "lat": 73.65128234569241, "lon": 44.55775959097328, "alt_km": 516.5799306713825, "timestamp": "2025-12-25T11:37:43.132612+00:00", "meta": {"OBJECT_NAME": "TRANSPORTER-15W", "OBJECT_ID": "2025-276W", "EPOCH": "2025-12-24T16:18:47.855520", "MEAN_MOTION": 15.18035485, "ECCENTRICITY": 0.00181838, "INCLINATION": 97.4405, "RA_OF_ASC_NODE": 70.2223, "ARG_OF_PERICENTER": 243.6801, "MEAN_ANOMALY": 116.2566, "EPHEMERIS_TYPE": 0, "CLASSIFICATION_TYPE": "U", "NORAD_CAT_ID": 66686, "ELEMENT_SET_NO": 999, "REV_AT_EPOCH": 393, "BSTAR": 0.0029615296, "MEAN_MOTION_DOT": 0.00060911, "MEAN_MOTION_DDOT": 0}, "tle": {"line1": "1 66686U 25276W   25358.67972055  .00060911  00000+0  29615-2 0  9999", "line2": "2 66686  97.4405  70.2223 0018183 243.6801 116.2566 15.18035485  3936"}}, "geometry": {"type": "Point", "coordinates": [44.55775959097328, 73.65128234569241]}}]}